[{"OBJECT_NAME":"HIBARI","OBJECT_ID":"2021-102F","EPOCH":"2026-03-09T16:55:51.090816","MEAN_MOTION":15.29554512,"ECCENTRICITY":0.00120742,"INCLINATION":97.3381,"RA_OF_ASC_NODE":115.826,"ARG_OF_PERICENTER":186.5211,"MEAN_ANOMALY":173.5875,"EPHEMERIS_TYPE":0,"CLASSIFICATION_TYPE":"U","NORAD_CAT_ID":49400,"ELEMENT_SET_NO":999,"REV_AT_EPOCH":23897,"BSTAR":0.00042758039,"MEAN_MOTION_DOT":0.00012206,"MEAN_MOTION_DDOT":0},{"OBJECT_NAME":"STARLINK-32603","OBJECT_ID":"2024-217R","EPOCH":"2026-03-09T14:03:34.630272","MEAN_MOTION":15.30195162,"ECCENTRICITY":0.0001028,"INCLINATION":53.1591,"RA_OF_ASC_NODE":194.5036,"ARG_OF_PERICENTER":114.8827,"MEAN_ANOMALY":245.2281,"EPHEMERIS_TYPE":0,"CLASSIFICATION_TYPE":"U","NORAD_CAT_ID":62072,"ELEMENT_SET_NO":999,"REV_AT_EPOCH":7345,"BSTAR":0.0018575,"MEAN_MOTION_DOT":0.00055056,"MEAN_MOTION_DDOT":0}]
